{"type": "FeatureCollection", "features": [ {"type": "Feature", "properties": {"norad_id": 37216, "name": "COSMO-SKYMED 4", "group": "resource", "lat": 19.999282061028744, "lon": -9.911873109767981, "alt_km": 622.4519957568618, "timestamp": "2025-12-11T20:41:14.744065+00:00", "meta": {"OBJECT_NAME": "COSMO-SKYMED 4", "OBJECT_ID": "2010-060A", "EPOCH": "2025-12-11T15:06:31.247712", "MEAN_MOTION": 14.82167353, "ECCENTRICITY": 0.00013923, "INCLINATION": 97.8808, "RA_OF_ASC_NODE": 166.9696, "ARG_OF_PERICENTER": 78.5142, "MEAN_ANOMALY": 281.6228, "EPHEMERIS_TYPE": 0, "CLASSIFICATION_TYPE": "U", "NORAD_CAT_ID": 37216, "ELEMENT_SET_NO": 999, "REV_AT_EPOCH": 81678, "BSTAR": 0.00012202365, "MEAN_MOTION_DOT": 9.2e-06, "MEAN_MOTION_DDOT": 0}, "tle": {"line1": "1 37216U 10060A   25345.62952833  .00000920  00000+0  12202-3 0  9993", "line2": "2 37216  97.8808 166.9696 0001392  78.5142 281.6228 14.82167353816785"}}, "geometry": {"type": "Point", "coordinates": [-9.911873109767981, 19.999282061028744]}}, {"type": "Feature", "properties": {"norad_id": 37387, "name": "RESOURCESAT-2", "group": "resource", "lat": -43.823470167673925, "lon": 57.95563922193772, "alt_km": 826.5247562787454, "timestamp": "2025-12-11T20:41:14.744076+00:00", "meta": {"OBJECT_NAME": "RESOURCESAT-2", "OBJECT_ID": "2011-015A", "EPOCH": "2025-12-11T14:08:21.835968", "MEAN_MOTION": 14.21596509, "ECCENTRICITY": 0.00064933, "INCLINATION": 98.7879, "RA_OF_ASC_NODE": 49.1461, "ARG_OF_PERICENTER": 45.634, "MEAN_ANOMALY": 314.5368, "EPHEMERIS_TYPE": 0, "CLASSIFICATION_TYPE": "U", "NORAD_CAT_ID": 37387, "ELEMENT_SET_NO": 999, "REV_AT_EPOCH": 75952, "BSTAR": 0.00012482815, "MEAN_MOTION_DOT": 2.29e-06, "MEAN_MOTION_DDOT": 0}, "tle": {"line1": "1 37387U 11015A   25345.58914162  .00000229  00000+0  12483-3 0  9994", "line2": "2 37387  98.7879  49.1461 0006493  45.6340 314.5368 14.21596509759527"}}, "geometry": {"type": "Point", "coordinates": [57.95563922193772, -43.823470167673925]}}, {"type": "Feature", "properties": {"norad_id": 37781, "name": "HAIYANG-2A", "group": "resource", "lat": 40.77575197551926, "lon": 174.96771109921556, "alt_km": 964.0171911635816, "timestamp": "2025-12-11T20:41:14.744086+00:00", "meta": {"OBJECT_NAME": "HAIYANG-2A", "OBJECT_ID": "2011-043A", "EPOCH": "2025-12-11T14:47:37.297824", "MEAN_MOTION": 13.78835483, "ECCENTRICITY": 0.00016619, "INCLINATION": 99.338, "RA_OF_ASC_NODE": 346.5679, "ARG_OF_PERICENTER": 82.8545, "MEAN_ANOMALY": 277.2796, "EPHEMERIS_TYPE": 0, "CLASSIFICATION_TYPE": "U", "NORAD_CAT_ID": 37781, "ELEMENT_SET_NO": 999, "REV_AT_EPOCH": 72083, "BSTAR": 0.0001646186, "MEAN_MOTION_DOT": 1.24e-06, "MEAN_MOTION_DDOT": 0}, "tle": {"line1": "1 37781U 11043A   25345.61640391  .00000124  00000+0  16462-3 0  9992", "line2": "2 37781  99.3380 346.5679 0001661  82.8545 277.2796 13.78835483720836"}}, "geometry": {"type": "Point", "coordinates": [174.96771109921556, 40.77575197551926]}}, {"type": "Feature", "properties": {"norad_id": 37791, "name": "RASAT", "group": "resource", "lat": -25.961274301791384, "lon": 79.09106269043411, "alt_km": 674.3738991434457, "timestamp": "2025-12-11T20:41:14.744097+00:00", "meta": {"OBJECT_NAME": "RASAT", "OBJECT_ID": "2011-044D", "EPOCH": "2025-12-11T12:40:30.813024", "MEAN_MOTION": 14.67907381, "ECCENTRICITY": 0.0021914, "INCLINATION": 98.0646, "RA_OF_ASC_NODE": 74.8037, "ARG_OF_PERICENTER": 68.5526, "MEAN_ANOMALY": 302.4522, "EPHEMERIS_TYPE": 0, "CLASSIFICATION_TYPE": "U", "NORAD_CAT_ID": 37791, "ELEMENT_SET_NO": 999, "REV_AT_EPOCH": 76565, "BSTAR": 0.00021297161, "MEAN_MOTION_DOT": 1.173e-05, "MEAN_MOTION_DDOT": 0}, "tle": {"line1": "1 37791U 11044D   25345.52813441  .00001173  00000+0  21297-3 0  9999", "line2": "2 37791  98.0646  74.8037 0021914  68.5526 302.4522 14.67907381765653"}}, "geometry": {"type": "Point", "coordinates": [79.09106269043411, -25.961274301791384]}}, {"type": "Feature", "properties": {"norad_id": 37841, "name": "SRMSAT", "group": "resource", "lat": -19.30302237007487, "lon": 38.586023715230134, "alt_km": 846.0160740281026, "timestamp": "2025-12-11T20:41:14.744107+00:00", "meta": {"OBJECT_NAME": "SRMSAT", "OBJECT_ID": "2011-058D", "EPOCH": "2025-12-11T09:17:14.658144", "MEAN_MOTION": 14.11510889, "ECCENTRICITY": 0.00117241, "INCLINATION": 19.9706, "RA_OF_ASC_NODE": 116.138, "ARG_OF_PERICENTER": 298.4928, "MEAN_ANOMALY": 87.0912, "EPHEMERIS_TYPE": 0, "CLASSIFICATION_TYPE": "U", "NORAD_CAT_ID": 37841, "ELEMENT_SET_NO": 999, "REV_AT_EPOCH": 73125, "BSTAR": 0.00014736177, "MEAN_MOTION_DOT": 5.36e-06, "MEAN_MOTION_DDOT": 0}, "tle": {"line1": "1 37841U 11058D   25345.38697521  .00000536  00000+0  14736-3 0  9995", "line2": "2 37841  19.9706 116.1380 0011724 298.4928  87.0912 14.11510889731257"}}, "geometry": {"type": "Point", "coordinates": [38.586023715230134, -19.30302237007487]}}, {"type": "Feature", "properties": {"norad_id": 38012, "name": "PLEIADES 1A", "group": "resource", "lat": 20.90194242004625, "lon": -118.2066371687032, "alt_km": 697.6848194423173, "timestamp": "2025-12-11T20:41:14.744117+00:00", "meta": {"OBJECT_NAME": "PLEIADES 1A", "OBJECT_ID": "2011-076F", "EPOCH": "2025-12-11T15:46:25.536864", "MEAN_MOTION": 14.58560502, "ECCENTRICITY": 0.00013231, "INCLINATION": 98.1818, "RA_OF_ASC_NODE": 58.4421, "ARG_OF_PERICENTER": 73.0089, "MEAN_ANOMALY": 91.3455, "EPHEMERIS_TYPE": 0, "CLASSIFICATION_TYPE": "U", "NORAD_CAT_ID": 38012, "ELEMENT_SET_NO": 999, "REV_AT_EPOCH": 74465, "BSTAR": 0.00019916511, "MEAN_MOTION_DOT": 8.8e-06, "MEAN_MOTION_DDOT": 0}, "tle": {"line1": "1 38012U 11076F   25345.65724001  .00000880  00000+0  19917-3 0  9998", "line2": "2 38012  98.1818  58.4421 0001323  73.0089  91.3455 14.58560502744650"}}, "geometry": {"type": "Point", "coordinates": [-118.2066371687032, 20.90194242004625]}}, {"type": "Feature", "properties": {"norad_id": 38038, "name": "ZIYUAN 1-02C (ZY 1-02C)", "group": "resource", "lat": 47.87235799630224, "lon": -118.66810262218351, "alt_km": 755.7729695073185, "timestamp": "2025-12-11T20:41:14.744127+00:00", "meta": {"OBJECT_NAME": "ZIYUAN 1-02C (ZY 1-02C)", "OBJECT_ID": "2011-079A", "EPOCH": "2025-12-11T15:49:05.357856", "MEAN_MOTION": 14.38010952, "ECCENTRICITY": 0.00071022, "INCLINATION": 98.4329, "RA_OF_ASC_NODE": 51.6923, "ARG_OF_PERICENTER": 141.0874, "MEAN_ANOMALY": 20.5787, "EPHEMERIS_TYPE": 0, "CLASSIFICATION_TYPE": "U", "NORAD_CAT_ID": 38038, "ELEMENT_SET_NO": 999, "REV_AT_EPOCH": 73225, "BSTAR": 0.00035647113, "MEAN_MOTION_DOT": 1.036e-05, "MEAN_MOTION_DDOT": 0}, "tle": {"line1": "1 38038U 11079A   25345.65908979  .00001036  00000+0  35647-3 0  9999", "line2": "2 38038  98.4329  51.6923 0007102 141.0874  20.5787 14.38010952732251"}}, "geometry": {"type": "Point", "coordinates": [-118.66810262218351, 47.87235799630224]}}, {"type": "Feature", "properties": {"norad_id": 38046, "name": "ZIYUAN 3-1 (ZY 3-1)", "group": "resource", "lat": -54.57779310740565, "lon": -137.9437347593405, "alt_km": 371.05554927061075, "timestamp": "2025-12-11T20:41:14.744138+00:00", "meta": {"OBJECT_NAME": "ZIYUAN 3-1 (ZY 3-1)", "OBJECT_ID": "2012-001A", "EPOCH": "2025-12-11T15:05:38.474592", "MEAN_MOTION": 15.68379086, "ECCENTRICITY": 0.00018395, "INCLINATION": 97.1753, "RA_OF_ASC_NODE": 52.0204, "ARG_OF_PERICENTER": 356.4321, "MEAN_ANOMALY": 3.6928, "EPHEMERIS_TYPE": 0, "CLASSIFICATION_TYPE": "U", "NORAD_CAT_ID": 38046, "ELEMENT_SET_NO": 999, "REV_AT_EPOCH": 77479, "BSTAR": 0.0013093577, "MEAN_MOTION_DOT": 0.00149283, "MEAN_MOTION_DDOT": 0}, "tle": {"line1": "1 38046U 12001A   25345.62891753  .00149283  00000+0  13094-2 0  9990", "line2": "2 38046  97.1753  52.0204 0001839 356.4321   3.6928 15.68379086774798"}}, "geometry": {"type": "Point", "coordinates": [-137.9437347593405, -54.57779310740565]}}, {"type": "Feature", "properties": {"norad_id": 38338, "name": "ARIRANG-3 (KOMPSAT-3)", "group": "resource", "lat": 45.57592943710106, "lon": -68.15478860689116, "alt_km": 682.0426790744978, "timestamp": "2025-12-11T20:41:14.744148+00:00", "meta": {"OBJECT_NAME": "ARIRANG-3 (KOMPSAT-3)", "OBJECT_ID": "2012-025B", "EPOCH": "2025-12-11T13:54:19.512864", "MEAN_MOTION": 14.61713546, "ECCENTRICITY": 0.00054412, "INCLINATION": 98.332, "RA_OF_ASC_NODE": 300.1601, "ARG_OF_PERICENTER": 342.6227, "MEAN_ANOMALY": 17.4786, "EPHEMERIS_TYPE": 0, "CLASSIFICATION_TYPE": "U", "NORAD_CAT_ID": 38338, "ELEMENT_SET_NO": 999, "REV_AT_EPOCH": 72393, "BSTAR": 0.00029136588, "MEAN_MOTION_DOT": 1.403e-05, "MEAN_MOTION_DDOT": 0}, "tle": {"line1": "1 38338U 12025B   25345.57939251  .00001403  00000+0  29137-3 0  9997", "line2": "2 38338  98.3320 300.1601 0005441 342.6227  17.4786 14.61713546723938"}}, "geometry": {"type": "Point", "coordinates": [-68.15478860689116, 45.57592943710106]}}, {"type": "Feature", "properties": {"norad_id": 38709, "name": "EXACTVIEW-1 (ADS-1B)", "group": "resource", "lat": 19.503592029582016, "lon": -82.56181829806108, "alt_km": 816.2674939107137, "timestamp": "2025-12-11T20:41:14.744162+00:00", "meta": {"OBJECT_NAME": "EXACTVIEW-1 (ADS-1B)", "OBJECT_ID": "2012-039C", "EPOCH": "2025-12-11T13:11:50.647200", "MEAN_MOTION": 14.24907409, "ECCENTRICITY": 0.00107327, "INCLINATION": 98.9635, "RA_OF_ASC_NODE": 93.915, "ARG_OF_PERICENTER": 357.7015, "MEAN_ANOMALY": 2.4112, "EPHEMERIS_TYPE": 0, "CLASSIFICATION_TYPE": "U", "NORAD_CAT_ID": 38709, "ELEMENT_SET_NO": 999, "REV_AT_EPOCH": 69598, "BSTAR": 0.00013961822, "MEAN_MOTION_DOT": 2.8e-06, "MEAN_MOTION_DDOT": 0}, "tle": {"line1": "1 38709U 12039C   25345.54989175  .00000280  00000+0  13962-3 0  9992", "line2": "2 38709  98.9635  93.9150 0010732 357.7015   2.4112 14.24907409695984"}}, "geometry": {"type": "Point", "coordinates": [-82.56181829806108, 19.503592029582016]}}]}